ONEWEB-0372             
1 49298U 21090V   26106.72256332  .00000029  00000+0  39963-4 0  9993
2 49298  87.9141 286.7097 0001857  91.5854 268.5492 13.20773819221727
ONEWEB-0373             
1 49299U 21090W   26106.74954333  .00000058  00000+0  11185-3 0  9999
2 49299  87.9136 286.7071 0001689  94.4692 265.6634 13.20769733222917
ONEWEB-0374             
1 49300U 21090X   26106.61556116  .00000231  00000+0  58868-3 0  9997
2 49300  87.8929 301.9865 0001720 110.5932 249.5382 13.14503047219478
ONEWEB-0375             
1 49301U 21090Y   26106.50963947  .00000079  00000+0  16323-3 0  9990
2 49301  87.9137 286.7451 0001593 111.0933 249.0370 13.20773711222387
ONEWEB-0376             
1 49302U 21090Z   26106.85250500 -.00000001  00000+0 -35061-4 0  9991
2 49302  87.9174 317.1935 0001941  83.1895 276.9458 13.19724469218361
ONEWEB-0377             
1 49303U 21090AA  26106.72285694 -.00000022  00000+0 -87174-4 0  9995
2 49303  87.9142 286.7040 0001527  92.2378 267.8930 13.20769692222405
ONEWEB-0378             
1 49304U 21090AB  26106.74493583  .00000039  00000+0  64479-4 0  9995
2 49304  87.9133 286.7080 0001765  97.2326 262.9008 13.20773256221673
ONEWEB-0379             
1 49305U 21090AC  26106.83915662  .00000238  00000+0  60805-3 0  9992
2 49305  87.8929 301.9527 0001739  93.7999 266.3329 13.14501945219500
ONEWEB-0380             
1 49306U 21090AD  26106.84932456 -.00000177  00000+0 -47496-3 0  9999
2 49306  87.9162 317.2051 0001560  90.0025 270.1286 13.19724155218335
ONEWEB-0381             
1 49307U 21090AE  26106.56804618 -.00000042  00000+0 -13579-3 0  9993
2 49307  87.9140 286.7392 0001698 101.2233 258.9091 13.20772643221696
ONEWEB-0382             
1 49308U 21090AF  26106.78269065  .00000035  00000+0  54778-4 0  9996
2 49308  87.9136 286.6920 0001810 103.1257 257.0078 13.20772804221718
ONEWEB-0383             
1 49309U 21090AG  26106.83281250  .00000172  00000+0  42826-3 0  9995
2 49309  87.8939 301.9410 0001845  94.7108 265.4232 13.14500867219535
ONEWEB-0384             
1 49310U 21090AH  26106.77295928  .00000057  00000+0  10839-3 0  9998
2 49310  87.9139 286.7371 0002005 106.9316 253.2037 13.20809856221721
ONEWEB-0385             
1 49311U 21090AJ  26106.77478462 -.00000216  00000+0 -56283-3 0  9997
2 49311  87.9136 286.6982 0001782  99.1742 260.9593 13.20771694221699
ONEWEB-0386             
1 49312U 21090AK  26106.79214611 -.00000046  00000+0 -14521-3 0  9994
2 49312  87.9146 286.6819 0001861 100.7132 259.4211 13.20773170221714
ONEWEB-0387             
1 49313U 21090AL  26106.77636919  .00000008  00000+0 -11824-4 0  9993
2 49313  87.9128 286.7165 0001471  99.4132 260.7168 13.20769948221715
