[{"OBJECT_NAME":"ONEWEB-0372","OBJECT_ID":"2021-090V","EPOCH":"2026-04-16T17:20:29.470848","MEAN_MOTION":13.20773819,"ECCENTRICITY":0.0001857,"INCLINATION":87.9141,"RA_OF_ASC_NODE":286.7097,"ARG_OF_PERICENTER":91.5854,"MEAN_ANOMALY":268.5492,"EPHEMERIS_TYPE":0,"CLASSIFICATION_TYPE":"U","NORAD_CAT_ID":49298,"ELEMENT_SET_NO":999,"REV_AT_EPOCH":22172,"BSTAR":3.9963000000000003e-05,"MEAN_MOTION_DOT":2.9e-07,"MEAN_MOTION_DDOT":0.0},{"OBJECT_NAME":"ONEWEB-0373","OBJECT_ID":"2021-090W","EPOCH":"2026-04-16T17:59:20.543712","MEAN_MOTION":13.20769733,"ECCENTRICITY":0.0001689,"INCLINATION":87.9136,"RA_OF_ASC_NODE":286.7071,"ARG_OF_PERICENTER":94.4692,"MEAN_ANOMALY":265.6634,"EPHEMERIS_TYPE":0,"CLASSIFICATION_TYPE":"U","NORAD_CAT_ID":49299,"ELEMENT_SET_NO":999,"REV_AT_EPOCH":22291,"BSTAR":0.00011185000000000001,"MEAN_MOTION_DOT":5.8e-07,"MEAN_MOTION_DDOT":0.0},{"OBJECT_NAME":"ONEWEB-0374","OBJECT_ID":"2021-090X","EPOCH":"2026-04-16T14:46:24.484224","MEAN_MOTION":13.14503047,"ECCENTRICITY":0.000172,"INCLINATION":87.8929,"RA_OF_ASC_NODE":301.9865,"ARG_OF_PERICENTER":110.5932,"MEAN_ANOMALY":249.5382,"EPHEMERIS_TYPE":0,"CLASSIFICATION_TYPE":"U","NORAD_CAT_ID":49300,"ELEMENT_SET_NO":999,"REV_AT_EPOCH":21947,"BSTAR":0.00058868,"MEAN_MOTION_DOT":2.31e-06,"MEAN_MOTION_DDOT":0.0},{"OBJECT_NAME":"ONEWEB-0375","OBJECT_ID":"2021-090Y","EPOCH":"2026-04-16T12:13:52.850208","MEAN_MOTION":13.20773711,"ECCENTRICITY":0.0001593,"INCLINATION":87.9137,"RA_OF_ASC_NODE":286.7451,"ARG_OF_PERICENTER":111.0933,"MEAN_ANOMALY":249.037,"EPHEMERIS_TYPE":0,"CLASSIFICATION_TYPE":"U","NORAD_CAT_ID":49301,"ELEMENT_SET_NO":999,"REV_AT_EPOCH":22238,"BSTAR":0.00016323,"MEAN_MOTION_DOT":7.9e-07,"MEAN_MOTION_DDOT":0.0},{"OBJECT_NAME":"ONEWEB-0376","OBJECT_ID":"2021-090Z","EPOCH":"2026-04-16T20:27:36.432000","MEAN_MOTION":13.19724469,"ECCENTRICITY":0.0001941,"INCLINATION":87.9174,"RA_OF_ASC_NODE":317.1935,"ARG_OF_PERICENTER":83.1895,"MEAN_ANOMALY":276.9458,"EPHEMERIS_TYPE":0,"CLASSIFICATION_TYPE":"U","NORAD_CAT_ID":49302,"ELEMENT_SET_NO":999,"REV_AT_EPOCH":21836,"BSTAR":-3.5061e-05,"MEAN_MOTION_DOT":-1e-08,"MEAN_MOTION_DDOT":0.0},{"OBJECT_NAME":"ONEWEB-0377","OBJECT_ID":"2021-090AA","EPOCH":"2026-04-16T17:20:54.839616","MEAN_MOTION":13.20769692,"ECCENTRICITY":0.0001527,"INCLINATION":87.9142,"RA_OF_ASC_NODE":286.704,"ARG_OF_PERICENTER":92.2378,"MEAN_ANOMALY":267.893,"EPHEMERIS_TYPE":0,"CLASSIFICATION_TYPE":"U","NORAD_CAT_ID":49303,"ELEMENT_SET_NO":999,"REV_AT_EPOCH":22240,"BSTAR":-8.7174e-05,"MEAN_MOTION_DOT":-2.2e-07,"MEAN_MOTION_DDOT":0.0},{"OBJECT_NAME":"ONEWEB-0378","OBJECT_ID":"2021-090AB","EPOCH":"2026-04-16T17:52:42.455712","MEAN_MOTION":13.20773256,"ECCENTRICITY":0.0001765,"INCLINATION":87.9133,"RA_OF_ASC_NODE":286.708,"ARG_OF_PERICENTER":97.2326,"MEAN_ANOMALY":262.9008,"EPHEMERIS_TYPE":0,"CLASSIFICATION_TYPE":"U","NORAD_CAT_ID":49304,"ELEMENT_SET_NO":999,"REV_AT_EPOCH":22167,"BSTAR":6.4479e-05,"MEAN_MOTION_DOT":3.9e-07,"MEAN_MOTION_DDOT":0.0},{"OBJECT_NAME":"ONEWEB-0379","OBJECT_ID":"2021-090AC","EPOCH":"2026-04-16T20:08:23.131968","MEAN_MOTION":13.14501945,"ECCENTRICITY":0.0001739,"INCLINATION":87.8929,"RA_OF_ASC_NODE":301.9527,"ARG_OF_PERICENTER":93.7999,"MEAN_ANOMALY":266.3329,"EPHEMERIS_TYPE":0,"CLASSIFICATION_TYPE":"U","NORAD_CAT_ID":49305,"ELEMENT_SET_NO":999,"REV_AT_EPOCH":21950,"BSTAR":0.00060805,"MEAN_MOTION_DOT":2.38e-06,"MEAN_MOTION_DDOT":0.0},{"OBJECT_NAME":"ONEWEB-0380","OBJECT_ID":"2021-090AD","EPOCH":"2026-04-16T20:23:01.641984","MEAN_MOTION":13.19724155,"ECCENTRICITY":0.000156,"INCLINATION":87.9162,"RA_OF_ASC_NODE":317.2051,"ARG_OF_PERICENTER":90.0025,"MEAN_ANOMALY":270.1286,"EPHEMERIS_TYPE":0,"CLASSIFICATION_TYPE":"U","NORAD_CAT_ID":49306,"ELEMENT_SET_NO":999,"REV_AT_EPOCH":21833,"BSTAR":-0.00047496,"MEAN_MOTION_DOT":-1.77e-06,"MEAN_MOTION_DDOT":0.0},{"OBJECT_NAME":"ONEWEB-0381","OBJECT_ID":"2021-090AE","EPOCH":"2026-04-16T13:37:59.189952","MEAN_MOTION":13.20772643,"ECCENTRICITY":0.0001698,"INCLINATION":87.914,"RA_OF_ASC_NODE":286.7392,"ARG_OF_PERICENTER":101.2233,"MEAN_ANOMALY":258.9091,"EPHEMERIS_TYPE":0,"CLASSIFICATION_TYPE":"U","NORAD_CAT_ID":49307,"ELEMENT_SET_NO":999,"REV_AT_EPOCH":22169,"BSTAR":-0.00013579,"MEAN_MOTION_DOT":-4.2e-07,"MEAN_MOTION_DDOT":0.0},{"OBJECT_NAME":"ONEWEB-0382","OBJECT_ID":"2021-090AF","EPOCH":"2026-04-16T18:47:04.472160","MEAN_MOTION":13.20772804,"ECCENTRICITY":0.000181,"INCLINATION":87.9136,"RA_OF_ASC_NODE":286.692,"ARG_OF_PERICENTER":103.1257,"MEAN_ANOMALY":257.0078,"EPHEMERIS_TYPE":0,"CLASSIFICATION_TYPE":"U","NORAD_CAT_ID":49308,"ELEMENT_SET_NO":999,"REV_AT_EPOCH":22171,"BSTAR":5.477800000000001e-05,"MEAN_MOTION_DOT":3.5e-07,"MEAN_MOTION_DDOT":0.0},{"OBJECT_NAME":"ONEWEB-0383","OBJECT_ID":"2021-090AG","EPOCH":"2026-04-16T19:59:15.000000","MEAN_MOTION":13.14500867,"ECCENTRICITY":0.0001845,"INCLINATION":87.8939,"RA_OF_ASC_NODE":301.941,"ARG_OF_PERICENTER":94.7108,"MEAN_ANOMALY":265.4232,"EPHEMERIS_TYPE":0,"CLASSIFICATION_TYPE":"U","NORAD_CAT_ID":49309,"ELEMENT_SET_NO":999,"REV_AT_EPOCH":21953,"BSTAR":0.00042825999999999997,"MEAN_MOTION_DOT":1.72e-06,"MEAN_MOTION_DDOT":0.0},{"OBJECT_NAME":"ONEWEB-0384","OBJECT_ID":"2021-090AH","EPOCH":"2026-04-16T18:33:03.681792","MEAN_MOTION":13.20809856,"ECCENTRICITY":0.0002005,"INCLINATION":87.9139,"RA_OF_ASC_NODE":286.7371,"ARG_OF_PERICENTER":106.9316,"MEAN_ANOMALY":253.2037,"EPHEMERIS_TYPE":0,"CLASSIFICATION_TYPE":"U","NORAD_CAT_ID":49310,"ELEMENT_SET_NO":999,"REV_AT_EPOCH":22172,"BSTAR":0.00010839,"MEAN_MOTION_DOT":5.7e-07,"MEAN_MOTION_DDOT":0.0},{"OBJECT_NAME":"ONEWEB-0385","OBJECT_ID":"2021-090AJ","EPOCH":"2026-04-16T18:35:41.391168","MEAN_MOTION":13.20771694,"ECCENTRICITY":0.0001782,"INCLINATION":87.9136,"RA_OF_ASC_NODE":286.6982,"ARG_OF_PERICENTER":99.1742,"MEAN_ANOMALY":260.9593,"EPHEMERIS_TYPE":0,"CLASSIFICATION_TYPE":"U","NORAD_CAT_ID":49311,"ELEMENT_SET_NO":999,"REV_AT_EPOCH":22169,"BSTAR":-0.0005628300000000001,"MEAN_MOTION_DOT":-2.16e-06,"MEAN_MOTION_DDOT":0.0},{"OBJECT_NAME":"ONEWEB-0386","OBJECT_ID":"2021-090AK","EPOCH":"2026-04-16T19:00:41.423904","MEAN_MOTION":13.2077317,"ECCENTRICITY":0.0001861,"INCLINATION":87.9146,"RA_OF_ASC_NODE":286.6819,"ARG_OF_PERICENTER":100.7132,"MEAN_ANOMALY":259.4211,"EPHEMERIS_TYPE":0,"CLASSIFICATION_TYPE":"U","NORAD_CAT_ID":49312,"ELEMENT_SET_NO":999,"REV_AT_EPOCH":22171,"BSTAR":-0.00014521,"MEAN_MOTION_DOT":-4.6e-07,"MEAN_MOTION_DDOT":0.0},{"OBJECT_NAME":"ONEWEB-0387","OBJECT_ID":"2021-090AL","EPOCH":"2026-04-16T18:37:58.298016","MEAN_MOTION":13.20769948,"ECCENTRICITY":0.0001471,"INCLINATION":87.9128,"RA_OF_ASC_NODE":286.7165,"ARG_OF_PERICENTER":99.4132,"MEAN_ANOMALY":260.7168,"EPHEMERIS_TYPE":0,"CLASSIFICATION_TYPE":"U","NORAD_CAT_ID":49313,"ELEMENT_SET_NO":999,"REV_AT_EPOCH":22171,"BSTAR":-1.1824e-05,"MEAN_MOTION_DOT":8e-08,"MEAN_MOTION_DDOT":0.0}]